     3.02           N: GNSS NAV DATA    J: QZSS             RINEX VERSION / TYPE
BINEX2RINEX  2.07   GSI, JAPAN          20210320 20:46:28UTCPGM / RUN BY / DATE
                                                            END OF HEADER
J07 2021 03 19 04 00 00-1.303851604462D-08 0.000000000000D+00 0.000000000000D+00
     4.500000000000D+01-4.091250000000D+02 0.000000000000D+00 5.193093808059D-02
    -1.338496804237D-05 1.450933050364D-04 4.960224032402D-06 6.493456657410D+03
     4.464000000000D+05-1.136213541031D-07 3.840500964281D-01-2.637505531311D-06
     1.252518275271D-03-1.460625000000D+02 2.917485933320D+00 9.593256740507D-10
     0.000000000000D+00 2.000000000000D+00 2.149000000000D+03 0.000000000000D+00
     2.800000000000D+00 0.000000000000D+00-5.587935447693D-09 8.130000000000D+02
     4.428060000000D+05 0.000000000000D+00
J01 2021 03 19 04 00 00-3.563282079995D-04-3.410605131648D-12 0.000000000000D+00
     4.500000000000D+01-6.959375000000D+01 3.024054535438D-09-5.897958547705D-01
    -2.333894371986D-06 7.490593020339D-02 3.507360816002D-06 6.492966865540D+03
     4.464000000000D+05-6.612390279770D-07-5.584176005402D-01 3.874301910400D-07
     7.311083942621D-01 6.031250000000D+01-1.572082818417D+00-3.304066199048D-09
    -9.250385315679D-11 2.000000000000D+00 2.149000000000D+03 0.000000000000D+00
     2.800000000000D+00 0.000000000000D+00-5.587935447693D-09 8.130000000000D+02
     4.428060000000D+05 0.000000000000D+00
J02 2021 03 19 04 00 00 3.639608621597D-06 6.821210263297D-13 0.000000000000D+00
     4.500000000000D+01 8.585625000000D+02 2.087229798642D-09-2.854541630065D+00
     2.549961209297D-05 7.465576962568D-02 5.003064870834D-06 6.493642364502D+03
     4.464000000000D+05 6.891787052155D-08 1.724515808685D+00 1.173466444016D-07
     7.417641359451D-01 2.000000000000D+01-1.566636134489D+00-2.424029541989D-09
     1.971510692762D-10 2.000000000000D+00 2.149000000000D+03 0.000000000000D+00
     2.800000000000D+00 0.000000000000D+00 9.313225746155D-10 8.130000000000D+02
     4.428060000000D+05 0.000000000000D+00
J03 2021 03 19 04 00 00-1.943204551935D-06-5.684341886081D-13 0.000000000000D+00
     4.500000000000D+01-5.194687500000D+02 1.748287108890D-09 1.716468147114D+00
    -1.773051917553D-05 7.448011578526D-02-2.078711986542D-06 6.493299699783D+03
     4.464000000000D+05 6.146728992462D-08-2.858387997185D+00-5.774199962616D-07
     7.128476363711D-01 2.788125000000D+02-1.572040456698D+00-2.672968482723D-09
    -1.214336296267D-10 2.000000000000D+00 2.149000000000D+03 0.000000000000D+00
     2.800000000000D+00 0.000000000000D+00 0.000000000000D+00 8.130000000000D+02
     4.428060000000D+05 0.000000000000D+00
J07 2021 03 19 05 00 00-1.350417733192D-08 0.000000000000D+00 0.000000000000D+00
     4.900000000000D+01-4.111562500000D+02 0.000000000000D+00 3.144172571065D-01
    -1.345016062260D-05 1.455135643482D-04 4.781410098076D-06 6.493457643509D+03
     4.500000000000D+05 1.925975084305D-06 3.840526594605D-01-2.859160304070D-06
     1.250519929175D-03-1.418750000000D+02 2.917508983057D+00 9.593256740507D-10
     0.000000000000D+00 2.000000000000D+00 2.149000000000D+03 0.000000000000D+00
     2.800000000000D+00 0.000000000000D+00-5.587935447693D-09 8.170000000000D+02
     4.464060000000D+05 0.000000000000D+00
J01 2021 03 19 05 00 00-3.563407808542D-04-3.410605131648D-12 0.000000000000D+00
     4.900000000000D+01-7.762500000000D+01 3.180489623016D-09-3.272240106278D-01
    -2.587214112282D-06 7.490489259362D-02 3.434717655182D-06 6.492963445663D+03
     4.500000000000D+05-3.166496753693D-07-5.584326100797D-01 1.303851604462D-07
     7.311076540255D-01 6.359375000000D+01-1.572073258247D+00-3.501931583793D-09
     6.643133856047D-11 2.000000000000D+00 2.149000000000D+03 0.000000000000D+00
     2.800000000000D+00 0.000000000000D+00-5.587935447693D-09 8.170000000000D+02
     4.464060000000D+05 0.000000000000D+00
J02 2021 03 19 05 00 00 3.641936928034D-06 6.821210263297D-13 0.000000000000D+00
     4.900000000000D+01 9.435312500000D+02 1.978653847446D-09-2.592098892832D+00
     2.762675285339D-05 7.466682570521D-02 2.609565854073D-06 6.493616470337D+03
     4.500000000000D+05-1.922249794006D-06 1.724497096500D+00 3.557652235031D-07
     7.417674289737D-01 1.250312500000D+02-1.566574911367D+00-1.915436928494D-09
     7.950331163205D-10 2.000000000000D+00 2.149000000000D+03 0.000000000000D+00
     2.800000000000D+00 0.000000000000D+00 9.313225746155D-10 8.170000000000D+02
     4.464060000000D+05 0.000000000000D+00
J03 2021 03 19 05 00 00-1.945532858372D-06-5.684341886081D-13 0.000000000000D+00
     4.900000000000D+01-6.248750000000D+02 2.471531520637D-09 1.979129856851D+00
    -2.034939825535D-05 7.448451849632D-02-6.612390279770D-07 6.493275997162D+03
     4.500000000000D+05 5.550682544708D-07-2.858401994385D+00-1.806765794754D-06
     7.128432563943D-01 2.173437500000D+02-1.572163760211D+00-3.239063491424D-09
     1.367914121971D-10 2.000000000000D+00 2.149000000000D+03 0.000000000000D+00
     2.800000000000D+00 0.000000000000D+00 0.000000000000D+00 8.170000000000D+02
     4.464060000000D+05 0.000000000000D+00
J07 2021 03 19 06 00 00-1.396983861923D-08 0.000000000000D+00 0.000000000000D+00
     5.300000000000D+01-4.248125000000D+02 0.000000000000D+00 5.856746375281D-01
    -1.384131610394D-05 1.429885160178D-04 5.543231964111D-06 6.493450757980D+03
     4.536000000000D+05 3.935769200325D-06 3.840246343389D-01-1.253560185432D-06
     1.247836937417D-03-1.684375000000D+02 2.908792064259D+00 1.015399438319D-09
     0.000000000000D+00 2.000000000000D+00 2.149000000000D+03 0.000000000000D+00
     2.800000000000D+00 0.000000000000D+00-5.587935447693D-09 8.210000000000D+02
     4.500060000000D+05 0.000000000000D+00
J02 2021 03 19 06 00 00 3.644265234470D-06 6.821210263297D-13 0.000000000000D+00
     5.300000000000D+01 9.731875000000D+02 1.504348376434D-09-2.329625495761D+00
     2.870522439480D-05 7.467012538109D-02 2.276152372360D-06 6.493607629776D+03
     4.536000000000D+05-2.700835466385D-06 1.724483391884D+00-1.596286892891D-06
     7.417722361225D-01 1.412187500000D+02-1.566545247778D+00-1.268267114130D-09
     1.008256283636D-09 2.000000000000D+00 2.149000000000D+03 0.000000000000D+00
     2.800000000000D+00 0.000000000000D+00 9.313225746155D-10 8.210000000000D+02
     4.500060000000D+05 0.000000000000D+00
J03 2021 03 19 06 00 00-1.947395503521D-06-5.684341886081D-13 0.000000000000D+00
     5.300000000000D+01-7.821875000000D+02 2.375098932404D-09 2.241818238511D+00
    -2.388283610344D-05 7.449353730772D-02 2.868473529816D-07 6.493243501663D+03
     4.536000000000D+05 8.009374141693D-07-2.858406864439D+00-5.196779966354D-07
     7.128469546512D-01 1.900000000000D+02-1.572317210077D+00-2.624752188607D-09
    -1.892935991239D-11 2.000000000000D+00 2.149000000000D+03 0.000000000000D+00
     2.800000000000D+00 0.000000000000D+00 0.000000000000D+00 8.210000000000D+02
     4.500060000000D+05 0.000000000000D+00
J01 2021 03 19 06 00 00-3.563533537090D-04-3.410605131648D-12 0.000000000000D+00
     5.300000000000D+01-8.446875000000D+01 3.218705500575D-09-6.464870083217D-02
    -2.736225724220D-06 7.490333844908D-02 3.164634108543D-06 6.492959028244D+03
     4.536000000000D+05-3.837049007416D-07-5.584443968107D-01 2.793967723846D-08
     7.311078837037D-01 7.634375000000D+01-1.572068860715D+00-3.484073697083D-09
     1.428630936784D-12 2.000000000000D+00 2.149000000000D+03 0.000000000000D+00
     2.800000000000D+00 0.000000000000D+00-5.587935447693D-09 8.210000000000D+02
     4.500360000000D+05 0.000000000000D+00
J07 2021 03 19 07 00 00-1.396983861923D-08 0.000000000000D+00 0.000000000000D+00
     5.700000000000D+01-4.554062500000D+02 0.000000000000D+00 8.645974424339D-01
    -1.472234725952D-05 1.403127098456D-04 6.157904863358D-06 6.493442138672D+03
     4.572000000000D+05 4.265457391739D-06 3.835792796509D-01 1.681968569756D-06
     1.244166475956D-03-1.898750000000D+02 2.892828305728D+00 1.085045196488D-09
     0.000000000000D+00 2.000000000000D+00 2.149000000000D+03 0.000000000000D+00
     2.800000000000D+00 0.000000000000D+00-5.587935447693D-09 8.250000000000D+02
     4.536060000000D+05 0.000000000000D+00
J02 2021 03 19 07 00 00 3.647059202194D-06 6.821210263297D-13 0.000000000000D+00
     5.700000000000D+01 8.731562500000D+02 1.812932658779D-09-2.067039532996D+00
     2.686120569706D-05 7.466388249304D-02 1.739710569382D-06 6.493628883362D+03
     4.572000000000D+05-5.215406417847D-08 1.724486907276D+00-8.735805749893D-07
     7.417679790309D-01 1.521250000000D+02-1.566644342922D+00-2.055442760298D-09
     2.932264997750D-10 2.000000000000D+00 2.149000000000D+03 0.000000000000D+00
     2.800000000000D+00 0.000000000000D+00 9.313225746155D-10 8.250000000000D+02
     4.536060000000D+05 0.000000000000D+00
J03 2021 03 19 07 00 00-1.949258148670D-06-5.684341886081D-13 0.000000000000D+00
     5.700000000000D+01-8.654062500000D+02 2.197234380774D-09 2.504426224045D+00
    -2.568587660789D-05 7.449954515323D-02 8.381903171539D-08 6.493226116180D+03
     4.572000000000D+05-4.023313522339D-07-2.858408222027D+00 9.313225746155D-09
     7.128491709721D-01 2.086562500000D+02-1.572387589603D+00-2.125802833935D-09
    -3.982308736286D-10 2.000000000000D+00 2.149000000000D+03 0.000000000000D+00
     2.800000000000D+00 0.000000000000D+00 0.000000000000D+00 8.250000000000D+02
     4.536060000000D+05 0.000000000000D+00
J07 2021 03 19 08 00 00-1.350417733192D-08 0.000000000000D+00 0.000000000000D+00
     6.100000000000D+01-4.652187500000D+02 0.000000000000D+00 1.132118544710D+00
    -1.497380435467D-05 1.397537998855D-04 6.185844540596D-06 6.493439983368D+03
     4.608000000000D+05 2.285465598106D-06 3.820400733197D-01 4.153698682785D-06
     1.239787962145D-03-1.911562500000D+02 2.889360989460D+00 1.107188976008D-09
     0.000000000000D+00 2.000000000000D+00 2.149000000000D+03 0.000000000000D+00
     2.800000000000D+00 0.000000000000D+00-5.587935447693D-09 8.290000000000D+02
     4.572060000000D+05 0.000000000000D+00
